start=new Date('2023-01-03T00:00:00.000Z').valueOf();
sats=[{"REV_AT_EPOCH":"9319","MEAN_MOTION_DDOT":"0.0000000000000","RA_OF_ASC_NODE":"257.4329","RCS_SIZE":"LARGE","TIME_SYSTEM":"UTC","ECCENTRICITY":"0.00015470","MEAN_MOTION_DOT":"0.00008342","TLE_LINE2":"2 48293  53.0541 257.4329 0001547  77.6643 282.4519 15.06400042 93193","BSTAR":"0.00057828000000","SITE":"AFETR","LAUNCH_DATE":"2021-04-29","ELEMENT_SET_NO":"999","INCLINATION":"53.0541","EPHEMERIS_TYPE":"0","OBJECT_TYPE":"PAYLOAD","PERIAPSIS":"546.142","COUNTRY_CODE":"US","GP_ID":"222062933","CENTER_NAME":"EARTH","MEAN_ANOMALY":"282.4519","OBJECT_ID":"2021-036T","OBJECT_NAME":"STARLINK-2550","PERIOD":"95.592","NORAD_CAT_ID":"48293","DECAY_DATE":null,"EPOCH":"2023-01-02T19:51:21.518496","MEAN_MOTION":"15.06400042","CLASSIFICATION_TYPE":"U","ARG_OF_PERICENTER":"77.6643","TLE_LINE1":"1 48293U 21036T   23002.82733239  .00008342  00000-0  57828-3 0  9992","REF_FRAME":"TEME","SEMIMAJOR_AXIS":"6925.348","APOAPSIS":"548.285","FILE":"3729873","MEAN_ELEMENT_THEORY":"SGP4"},{"EPHEMERIS_TYPE":"0","OBJECT_TYPE":"PAYLOAD","INCLINATION":"53.0552","GP_ID":"222029140","PERIAPSIS":"546.270","COUNTRY_CODE":"US","SITE":"AFETR","ELEMENT_SET_NO":"999","LAUNCH_DATE":"2021-04-29","TLE_LINE2":"2 48294  53.0552 259.2315 0001386  80.4854 279.6291 15.06394775 93132","ECCENTRICITY":"0.00013860","MEAN_MOTION_DOT":"-0.00002868","BSTAR":"-0.00017375000000","RA_OF_ASC_NODE":"259.2315","REV_AT_EPOCH":"9313","MEAN_MOTION_DDOT":"0.0000000000000","TIME_SYSTEM":"UTC","RCS_SIZE":"LARGE","REF_FRAME":"TEME","SEMIMAJOR_AXIS":"6925.365","APOAPSIS":"548.189","MEAN_ELEMENT_THEORY":"SGP4","FILE":"3729583","ARG_OF_PERICENTER":"80.4854","TLE_LINE1":"1 48294U 21036U   23002.42555772 -.00002868  00000-0 -17375-3 0  9995","PERIOD":"95.592","OBJECT_NAME":"STARLINK-2533","EPOCH":"2023-01-02T10:12:48.187008","CLASSIFICATION_TYPE":"U","MEAN_MOTION":"15.06394775","DECAY_DATE":null,"NORAD_CAT_ID":"48294","CENTER_NAME":"EARTH","OBJECT_ID":"2021-036U","MEAN_ANOMALY":"279.6291"},{"RCS_SIZE":"LARGE","TIME_SYSTEM":"UTC","MEAN_MOTION_DDOT":"0.0000000000000","REV_AT_EPOCH":"9321","RA_OF_ASC_NODE":"256.8661","BSTAR":"-0.00000027928000","MEAN_MOTION_DOT":"-0.00000285","ECCENTRICITY":"0.00011790","TLE_LINE2":"2 48295  53.0523 256.8661 0001179 121.2543 238.8561 15.06371770 93213","LAUNCH_DATE":"2021-04-29","ELEMENT_SET_NO":"999","SITE":"AFETR","COUNTRY_CODE":"US","PERIAPSIS":"546.484","GP_ID":"222063435","INCLINATION":"53.0523","OBJECT_TYPE":"PAYLOAD","EPHEMERIS_TYPE":"0","MEAN_ANOMALY":"238.8561","OBJECT_ID":"2021-036V","CENTER_NAME":"EARTH","DECAY_DATE":null,"NORAD_CAT_ID":"48295","CLASSIFICATION_TYPE":"U","MEAN_MOTION":"15.06371770","EPOCH":"2023-01-02T22:51:49.176000","OBJECT_NAME":"STARLINK-2535","PERIOD":"95.594","TLE_LINE1":"1 48295U 21036V   23002.95265250 -.00000285  00000-0 -27928-6 0  9992","ARG_OF_PERICENTER":"121.2543","FILE":"3729873","MEAN_ELEMENT_THEORY":"SGP4","SEMIMAJOR_AXIS":"6925.435","APOAPSIS":"548.117","REF_FRAME":"TEME"},{"OBJECT_NAME":"STARLINK-2546","PERIOD":"95.592","DECAY_DATE":null,"NORAD_CAT_ID":"48296","MEAN_MOTION":"15.06396418","EPOCH":"2023-01-02T17:59:52.177344","CLASSIFICATION_TYPE":"U","CENTER_NAME":"EARTH","OBJECT_ID":"2021-036W","MEAN_ANOMALY":"258.1053","REF_FRAME":"TEME","MEAN_ELEMENT_THEORY":"SGP4","FILE":"3729873","APOAPSIS":"548.226","SEMIMAJOR_AXIS":"6925.360","TLE_LINE1":"1 48296U 21036W   23002.74990946  .00001518  00000-0  12076-3 0  9990","ARG_OF_PERICENTER":"102.0098","MEAN_MOTION_DOT":"0.00001518","ECCENTRICITY":"0.00014460","TLE_LINE2":"2 48296  53.0539 257.7743 0001446 102.0098 258.1053 15.06396418 93184","BSTAR":"0.00012076000000","REV_AT_EPOCH":"9318","MEAN_MOTION_DDOT":"0.0000000000000","RA_OF_ASC_NODE":"257.7743","RCS_SIZE":"LARGE","TIME_SYSTEM":"UTC","INCLINATION":"53.0539","OBJECT_TYPE":"PAYLOAD","EPHEMERIS_TYPE":"0","COUNTRY_CODE":"US","PERIAPSIS":"546.223","GP_ID":"222063686","SITE":"AFETR","LAUNCH_DATE":"2021-04-29","ELEMENT_SET_NO":"999"},{"TLE_LINE1":"1 48297U 21036X   23002.87892237  .00005638  00000-0  39721-3 0  9992","ARG_OF_PERICENTER":"71.4489","FILE":"3729873","MEAN_ELEMENT_THEORY":"SGP4","SEMIMAJOR_AXIS":"6925.379","APOAPSIS":"548.242","REF_FRAME":"TEME","OBJECT_ID":"2021-036X","MEAN_ANOMALY":"288.6656","CENTER_NAME":"EARTH","NORAD_CAT_ID":"48297","DECAY_DATE":null,"EPOCH":"2023-01-02T21:05:38.892768","MEAN_MOTION":"15.06390151","CLASSIFICATION_TYPE":"U","OBJECT_NAME":"STARLINK-2544","PERIOD":"95.593","LAUNCH_DATE":"2021-04-29","ELEMENT_SET_NO":"999","SITE":"AFETR","COUNTRY_CODE":"US","PERIAPSIS":"546.245","GP_ID":"222062434","INCLINATION":"53.0544","OBJECT_TYPE":"PAYLOAD","EPHEMERIS_TYPE":"0","RCS_SIZE":"LARGE","TIME_SYSTEM":"UTC","REV_AT_EPOCH":"9320","MEAN_MOTION_DDOT":"0.0000000000000","RA_OF_ASC_NODE":"257.1961","BSTAR":"0.00039721000000","MEAN_MOTION_DOT":"0.00005638","ECCENTRICITY":"0.00014420","TLE_LINE2":"2 48297  53.0544 257.1961 0001442  71.4489 288.6656 15.06390151 93204"},{"RA_OF_ASC_NODE":"257.8160","MEAN_MOTION_DDOT":"0.0000000000000","REV_AT_EPOCH":"9318","TIME_SYSTEM":"UTC","RCS_SIZE":"LARGE","TLE_LINE2":"2 48298  53.0534 257.8160 0001750  55.3931 304.7223 15.06385899 93187","MEAN_MOTION_DOT":"0.00001857","ECCENTRICITY":"0.00017500","BSTAR":"0.00014362000000","SITE":"AFETR","ELEMENT_SET_NO":"999","LAUNCH_DATE":"2021-04-29","OBJECT_TYPE":"PAYLOAD","EPHEMERIS_TYPE":"0","INCLINATION":"53.0534","GP_ID":"222062684","COUNTRY_CODE":"US","PERIAPSIS":"546.045","CENTER_NAME":"EARTH","OBJECT_ID":"2021-036Y","MEAN_ANOMALY":"304.7223","PERIOD":"95.593","OBJECT_NAME":"STARLINK-2559","CLASSIFICATION_TYPE":"U","EPOCH":"2023-01-02T17:49:16.180896","MEAN_MOTION":"15.06385899","NORAD_CAT_ID":"48298","DECAY_DATE":null,"TLE_LINE1":"1 48298U 21036Y   23002.74254839  .00001857  00000-0  14362-3 0  9992","ARG_OF_PERICENTER":"55.3931","REF_FRAME":"TEME","FILE":"3729873","MEAN_ELEMENT_THEORY":"SGP4","SEMIMAJOR_AXIS":"6925.392","APOAPSIS":"548.469"},{"OBJECT_ID":"2021-036Z","MEAN_ANOMALY":"282.6783","CENTER_NAME":"EARTH","NORAD_CAT_ID":"48299","DECAY_DATE":null,"CLASSIFICATION_TYPE":"U","EPOCH":"2023-01-02T17:43:55.666272","MEAN_MOTION":"15.06392220","OBJECT_NAME":"STARLINK-2557","PERIOD":"95.593","ARG_OF_PERICENTER":"77.4391","TLE_LINE1":"1 48299U 21036Z   23002.73883873  .00001400  00000-0  11289-3 0  9997","APOAPSIS":"548.386","SEMIMAJOR_AXIS":"6925.372","FILE":"3729873","MEAN_ELEMENT_THEORY":"SGP4","REF_FRAME":"TEME","RCS_SIZE":"LARGE","TIME_SYSTEM":"UTC","MEAN_MOTION_DDOT":"0.0000000000000","REV_AT_EPOCH":"9318","RA_OF_ASC_NODE":"257.8156","BSTAR":"0.00011289000000","ECCENTRICITY":"0.00016590","MEAN_MOTION_DOT":"0.00001400","TLE_LINE2":"2 48299  53.0552 257.8156 0001659  77.4391 282.6783 15.06392220 93187","LAUNCH_DATE":"2021-04-29","ELEMENT_SET_NO":"999","SITE":"AFETR","PERIAPSIS":"546.088","COUNTRY_CODE":"US","GP_ID":"222063935","INCLINATION":"53.0552","EPHEMERIS_TYPE":"0","OBJECT_TYPE":"PAYLOAD"},{"TIME_SYSTEM":"UTC","RCS_SIZE":"LARGE","RA_OF_ASC_NODE":"267.2536","MEAN_MOTION_DDOT":"0.0000000000000","REV_AT_EPOCH":"9306","BSTAR":"0.00003096900000","TLE_LINE2":"2 48300  53.0558 267.2536 0002001  63.2019 296.9175 15.06404274 93068","MEAN_MOTION_DOT":"0.00000180","ECCENTRICITY":"0.00020010","ELEMENT_SET_NO":"999","LAUNCH_DATE":"2021-04-29","SITE":"AFETR","GP_ID":"222064186","COUNTRY_CODE":"US","PERIAPSIS":"545.815","OBJECT_TYPE":"PAYLOAD","EPHEMERIS_TYPE":"0","INCLINATION":"53.0558","OBJECT_ID":"2021-036AA","MEAN_ANOMALY":"296.9175","CENTER_NAME":"EARTH","MEAN_MOTION":"15.06404274","EPOCH":"2023-01-02T20:43:04.276416","CLASSIFICATION_TYPE":"U","DECAY_DATE":null,"NORAD_CAT_ID":"48300","PERIOD":"95.592","OBJECT_NAME":"STARLINK-2538","TLE_LINE1":"1 48300U 21036AA  23002.86324394  .00000180  00000-0  30969-4 0  9993","ARG_OF_PERICENTER":"63.2019","FILE":"3729873","MEAN_ELEMENT_THEORY":"SGP4","APOAPSIS":"548.586","SEMIMAJOR_AXIS":"6925.335","REF_FRAME":"TEME"},{"RA_OF_ASC_NODE":"267.8790","MEAN_MOTION_DDOT":"0.0000000000000","REV_AT_EPOCH":"9303","TIME_SYSTEM":"UTC","RCS_SIZE":"LARGE","TLE_LINE2":"2 48301  53.0528 267.8790 0001542 100.0311 260.0852 15.06396102 93039","ECCENTRICITY":"0.00015420","MEAN_MOTION_DOT":"-0.00000837","BSTAR":"-0.00003729200000","SITE":"AFETR","ELEMENT_SET_NO":"999","LAUNCH_DATE":"2021-04-29","EPHEMERIS_TYPE":"0","OBJECT_TYPE":"PAYLOAD","INCLINATION":"53.0528","GP_ID":"222062934","PERIAPSIS":"546.158","COUNTRY_CODE":"US","CENTER_NAME":"EARTH","MEAN_ANOMALY":"260.0852","OBJECT_ID":"2021-036AB","PERIOD":"95.592","OBJECT_NAME":"STARLINK-2537","EPOCH":"2023-01-02T17:26:42.193536","MEAN_MOTION":"15.06396102","CLASSIFICATION_TYPE":"U","DECAY_DATE":null,"NORAD_CAT_ID":"48301","ARG_OF_PERICENTER":"100.0311","TLE_LINE1":"1 48301U 21036AB  23002.72687724 -.00000837  00000-0 -37292-4 0  9995","REF_FRAME":"TEME","APOAPSIS":"548.293","SEMIMAJOR_AXIS":"6925.361","FILE":"3729873","MEAN_ELEMENT_THEORY":"SGP4"},{"LAUNCH_DATE":"2021-04-29","ELEMENT_SET_NO":"999","SITE":"AFETR","COUNTRY_CODE":"US","PERIAPSIS":"546.140","GP_ID":"222029141","INCLINATION":"53.0539","OBJECT_TYPE":"PAYLOAD","EPHEMERIS_TYPE":"0","RCS_SIZE":"LARGE","TIME_SYSTEM":"UTC","REV_AT_EPOCH":"9299","MEAN_MOTION_DDOT":"0.0000000000000","RA_OF_ASC_NODE":"269.0784","BSTAR":"0.00066433000000","MEAN_MOTION_DOT":"0.00009626","ECCENTRICITY":"0.00015720","TLE_LINE2":"2 48302  53.0539 269.0784 0001572 103.3159 256.8006 15.06394920 92992","TLE_LINE1":"1 48302U 21036AC  23002.45779481  .00009626  00000-0  66433-3 0  9999","ARG_OF_PERICENTER":"103.3159","FILE":"3729583","MEAN_ELEMENT_THEORY":"SGP4","APOAPSIS":"548.318","SEMIMAJOR_AXIS":"6925.364","REF_FRAME":"TEME","MEAN_ANOMALY":"256.8006","OBJECT_ID":"2021-036AC","CENTER_NAME":"EARTH","NORAD_CAT_ID":"48302","DECAY_DATE":null,"EPOCH":"2023-01-02T10:59:13.471584","MEAN_MOTION":"15.06394920","CLASSIFICATION_TYPE":"U","OBJECT_NAME":"STARLINK-2556","PERIOD":"95.592"}];
